OBJECT_NAME,OBJECT_ID,EPOCH,MEAN_MOTION,ECCENTRICITY,INCLINATION,RA_OF_ASC_NODE,ARG_OF_PERICENTER,MEAN_ANOMALY,EPHEMERIS_TYPE,CLASSIFICATION_TYPE,NORAD_CAT_ID,ELEMENT_SET_NO,REV_AT_EPOCH,BSTAR,MEAN_MOTION_DOT,MEAN_MOTION_DDOT
LEMUR-1,2014-033AL,2026-06-17T08:40:17.283360,14.85247306,.00496767,97.7876,318.1624,78.0722,282.6056,0,U,40044,999,64549,.1995262E-3,.1695E-4,0
LEMUR-2-GREENBERG,2017-042N,2026-06-17T11:29:53.306016,15.31334775,.00085082,97.3816,349.1017,13.0067,347.1392,0,U,42837,999,48843,.4123969E-3,.12423E-3,0
LEMUR-2-ANDIS,2017-042P,2026-06-17T01:13:56.450784,15.34838886,.00081745,97.3672,348.8597,12.8795,347.2655,0,U,42838,999,48843,.53887421E-3,.18164E-3,0
LEMUR-2-MONSON,2017-042Q,2026-06-17T11:43:25.675104,15.28016395,.00061838,97.4076,349.0830,5.1720,354.9582,0,U,42839,999,48821,.3892843E-3,.10574E-3,0
LEMUR-2-FURIAUS,2017-042R,2026-06-17T11:21:14.840352,15.30258907,.00081756,97.3768,347.0502,68.3707,291.8403,0,U,42840,999,48825,.45598177E-3,.13294E-3,0
LEMUR-2-PETERG,2017-042S,2026-06-17T22:46:08.455008,15.33907981,.00031748,97.3988,353.9794,353.9946,6.1258,0,U,42841,999,48855,.52474734E-3,.17153E-3,0
LEMUR-2-DEMBITZ,2017-042T,2026-06-17T22:48:58.848768,15.30313913,.00066817,97.3823,350.5492,26.2421,333.9157,0,U,42842,999,48846,.47758559E-3,.13947E-3,0
LEMUR-2-ZACHARY,2017-042W,2026-06-17T12:18:22.206528,15.50284724,.00028772,97.3591,0.1557,31.4744,328.6679,0,U,42845,999,48925,.65521649E-3,.37119E-3,0
LEMUR-2-AMANDA-SVANTE,2021-034B,2026-06-17T17:58:15.379968,15.34324991,.00023541,97.5760,247.0493,205.6688,154.4438,0,U,48269,999,28114,.78973318E-3,.26226E-3,0
LEMUR-2-SPECIAL-K,2021-034F,2026-06-17T18:56:07.018368,15.64619354,.00043566,97.5653,255.6897,229.0724,131.0158,0,U,48273,999,28178,.13788958E-2,.135073E-2,0
LEMUR-2-EMBRIONOVIS,2023-084AQ,2026-06-17T07:57:54.861408,15.37551092,.00077324,97.6296,312.5361,319.5567,40.5101,0,U,56970,999,16770,.28629971E-3,.10473E-3,0
LEMUR-2-DEVERILL-M-T,2023-100F,2026-06-17T14:59:36.610656,15.39772548,.00062396,99.4465,207.5088,49.0756,311.1023,0,U,57391,999,16131,.53435446E-3,.21093E-3,0
LEMUR-2-BASS,2023-174D,2026-06-17T19:03:11.541312,15.43111358,.00077813,97.3847,253.5145,160.0647,200.0906,0,U,58259,999,14545,.32694919E-3,.14398E-3,0
LEMUR-2-JK0903EM1407,2023-174CJ,2026-06-17T18:55:37.968960,15.51707078,.0005745,97.3924,259.2749,118.3602,241.8230,0,U,58336,999,14582,.39821125E-3,.2366E-3,0
LEMUR-2-MJR092620,2023-174CN,2026-06-17T19:21:20.313504,15.44894572,.00071226,97.3976,258.8465,115.8052,244.3932,0,U,58340,999,14574,.34051826E-3,.15933E-3,0
LEMUR-2-NIMBUS2000,2024-022A,2026-06-17T12:48:26.957376,15.40005076,.0010352,97.4103,18.5391,114.7949,245.4375,0,U,58899,999,13232,.34279E-3,.13626E-3,0
LEMUR-2-VALHALLA,2024-022B,2026-06-17T12:43:06.565440,15.39680570,.00108694,97.4101,18.5257,110.9404,249.3006,0,U,58900,999,13232,.32559967E-3,.12802E-3,0
LEMUR-2-CAEL,2024-022E,2026-06-17T12:56:50.486208,15.40983708,.0009264,97.4083,19.4718,96.4011,263.8290,0,U,58903,999,13239,.33549E-3,.13768E-3,0
LEMUR-2-JOHNNYTRUONG,2024-043BA,2026-06-17T09:45:25.791264,15.60479348,.00048266,97.5382,320.1225,175.9069,184.2228,0,U,59146,999,12807,.40360101E-3,.33183E-3,0
LEMUR-2-TOMATOKECHUP,2024-149D,2026-06-17T18:12:38.765664,15.36043764,.00015019,97.3800,250.8069,174.1749,185.9513,0,U,60471,999,10225,.26226038E-3,.9126E-4,0
LEMUR-2-STELLA,2024-149BT,2026-06-17T17:50:51.004032,15.11821344,.00016799,97.6738,251.2009,96.0529,264.0893,0,U,60533,999,10058,.51289417E-3,.8701E-4,0
LEMUR-2-MARHISYAM,2024-149BW,2026-06-17T22:08:49.752384,15.11273220,.00032638,97.6878,251.8303,116.8175,243.3389,0,U,60536,999,10059,.55320687E-3,.9249E-4,0
LEMUR-2-AHMED-ASRAR,2024-149DN,2026-06-17T18:11:13.042176,15.12725584,.00018339,97.7008,253.7599,43.6479,316.4896,0,U,60576,999,10065,.5376951E-3,.9358E-4,0
LEMUR-2-LLOYD,2024-149DP,2026-06-17T18:31:04.830816,15.09249553,.00048436,97.6748,249.9004,138.8319,221.3276,0,U,60577,999,10048,.56011309E-3,.8858E-4,0
LEMUR-2-SQUIRRELCOMM,2024-149DQ,2026-06-17T18:52:39.319680,15.07154532,.00062485,97.6705,249.6957,59.5090,300.6754,0,U,60578,999,10049,.33279434E-3,.4943E-4,0
LEMUR-2-SIERRINI,2024-149DR,2026-06-17T19:32:12.105600,15.10959255,.00059399,97.6842,251.4090,162.2870,197.8567,0,U,60579,999,10055,.5323331E-3,.8822E-4,0
LEMUR-2-WILSON,2025-009CP,2026-06-17T18:20:30.452640,14.95167962,.00042451,97.7026,247.2186,57.5383,302.6248,0,U,62694,999,7744,.21834195E-3,.2341E-4,0
LEMUR-2-STAR-FOX,2025-009CR,2026-06-17T21:24:24.071328,15.02514028,.00039266,97.6956,250.4954,109.8569,250.3079,0,U,62696,999,7766,.49160554E-3,.6473E-4,0
LEMUR-2-ARIANNA,2025-009CU,2026-06-17T21:22:01.344576,15.02495666,.0004309,97.6894,250.2682,115.4191,244.7480,0,U,62699,999,7766,.49787281E-3,.6553E-4,0
LEMUR-2-ALISIA,2025-009DB,2026-06-17T17:38:15.167328,15.02775304,.00020946,97.6951,250.9012,191.5594,168.5584,0,U,62706,999,10024,.43424708E-3,.5749E-4,0
